[{"OBJECT_NAME":"STARLINK-3540","OBJECT_ID":"2022-016F","EPOCH":"2026-03-09T22:31:05.700288","MEAN_MOTION":15.08830295,"ECCENTRICITY":0.00016137,"INCLINATION":53.2182,"RA_OF_ASC_NODE":328.082,"ARG_OF_PERICENTER":89.8823,"MEAN_ANOMALY":270.2354,"EPHEMERIS_TYPE":0,"CLASSIFICATION_TYPE":"U","NORAD_CAT_ID":51719,"ELEMENT_SET_NO":999,"REV_AT_EPOCH":22346,"BSTAR":6.0846431e-5,"MEAN_MOTION_DOT":6.8e-6,"MEAN_MOTION_DDOT":0},{"OBJECT_NAME":"QPS-SAR-7 (TSUKUYOMI-II)","OBJECT_ID":"2024-066F","EPOCH":"2026-03-09T22:44:25.024704","MEAN_MOTION":15.07520552,"ECCENTRICITY":3.06e-5,"INCLINATION":45.6053,"RA_OF_ASC_NODE":45.6252,"ARG_OF_PERICENTER":310.671,"MEAN_ANOMALY":49.4148,"EPHEMERIS_TYPE":0,"CLASSIFICATION_TYPE":"U","NORAD_CAT_ID":59447,"ELEMENT_SET_NO":999,"REV_AT_EPOCH":10524,"BSTAR":0.00063712098,"MEAN_MOTION_DOT":9.59e-5,"MEAN_MOTION_DDOT":0}]
